{"fetched_at":"2026-07-22T07:09:35.987Z","source":"https://celestrak.org/NORAD/elements/gp.php?NAME=CAPELLA&FORMAT=JSON","constellation":"capella","records":[{"OBJECT_NAME":"CAPELLA-11 (ACADIA-1)","OBJECT_ID":"2023-126A","EPOCH":"2026-07-20T21:47:19.710528","CLASSIFICATION_TYPE":"U","MEAN_MOTION":14.8530746,"ECCENTRICITY":0.0001843,"INCLINATION":53.0084,"RA_OF_ASC_NODE":38.4551,"ARG_OF_PERICENTER":136.4242,"MEAN_ANOMALY":223.6883,"EPHEMERIS_TYPE":0,"NORAD_CAT_ID":57693,"ELEMENT_SET_NO":999,"REV_AT_EPOCH":15713,"BSTAR":0.00034801061,"MEAN_MOTION_DOT":0.00002788,"MEAN_MOTION_DDOT":0},{"OBJECT_NAME":"CAPELLA-14 (ACADIA-4)","OBJECT_ID":"2024-066C","EPOCH":"2026-07-21T14:21:29.233728","CLASSIFICATION_TYPE":"U","MEAN_MOTION":15.06863402,"ECCENTRICITY":0.0000723,"INCLINATION":45.6032,"RA_OF_ASC_NODE":74.3411,"ARG_OF_PERICENTER":198.4392,"MEAN_ANOMALY":161.6466,"EPHEMERIS_TYPE":0,"NORAD_CAT_ID":59444,"ELEMENT_SET_NO":999,"REV_AT_EPOCH":11768,"BSTAR":0.00064399686,"MEAN_MOTION_DOT":0.00009521,"MEAN_MOTION_DDOT":0},{"OBJECT_NAME":"CAPELLA-13 (ACADIA-3)","OBJECT_ID":"2024-142A","EPOCH":"2026-07-21T13:31:56.675424","CLASSIFICATION_TYPE":"U","MEAN_MOTION":14.87661589,"ECCENTRICITY":0.00013471,"INCLINATION":53.0041,"RA_OF_ASC_NODE":267.514,"ARG_OF_PERICENTER":89.8509,"MEAN_ANOMALY":270.2626,"EPHEMERIS_TYPE":0,"NORAD_CAT_ID":60419,"ELEMENT_SET_NO":999,"REV_AT_EPOCH":10552,"BSTAR":0.00038366544,"MEAN_MOTION_DOT":0.0000329,"MEAN_MOTION_DDOT":0},{"OBJECT_NAME":"CAPELLA-15 (ACADIA-5)","OBJECT_ID":"2024-149CE","EPOCH":"2026-07-21T04:21:34.140960","CLASSIFICATION_TYPE":"U","MEAN_MOTION":14.92387301,"ECCENTRICITY":0.00029007,"INCLINATION":97.6765,"RA_OF_ASC_NODE":274.2324,"ARG_OF_PERICENTER":316.3162,"MEAN_ANOMALY":43.7827,"EPHEMERIS_TYPE":0,"NORAD_CAT_ID":60544,"ELEMENT_SET_NO":999,"REV_AT_EPOCH":10492,"BSTAR":0.00021444467,"MEAN_MOTION_DOT":0.0000214,"MEAN_MOTION_DDOT":0},{"OBJECT_NAME":"CAPELLA-17 (ACADIA-7)","OBJECT_ID":"2025-135BH","EPOCH":"2026-07-21T14:51:56.663712","CLASSIFICATION_TYPE":"U","MEAN_MOTION":14.91668755,"ECCENTRICITY":0.00044187,"INCLINATION":97.7708,"RA_OF_ASC_NODE":315.7359,"ARG_OF_PERICENTER":224.0366,"MEAN_ANOMALY":136.0501,"EPHEMERIS_TYPE":0,"NORAD_CAT_ID":64583,"ELEMENT_SET_NO":999,"REV_AT_EPOCH":5898,"BSTAR":0.00048529887,"MEAN_MOTION_DOT":0.00004825,"MEAN_MOTION_DDOT":0},{"OBJECT_NAME":"CAPELLA-16 (ACADIA-6)","OBJECT_ID":"2025-188D","EPOCH":"2026-07-21T04:21:41.814144","CLASSIFICATION_TYPE":"U","MEAN_MOTION":14.9409338,"ECCENTRICITY":0.00057897,"INCLINATION":97.7373,"RA_OF_ASC_NODE":276.826,"ARG_OF_PERICENTER":120.9519,"MEAN_ANOMALY":239.227,"EPHEMERIS_TYPE":0,"NORAD_CAT_ID":65318,"ELEMENT_SET_NO":999,"REV_AT_EPOCH":4899,"BSTAR":0.00038027285,"MEAN_MOTION_DOT":0.00004008,"MEAN_MOTION_DDOT":0},{"OBJECT_NAME":"CAPELLA-19 (ACADIA-9)","OBJECT_ID":"2026-004X","EPOCH":"2026-07-21T10:59:44.961792","CLASSIFICATION_TYPE":"U","MEAN_MOTION":14.86654009,"ECCENTRICITY":0.00015025,"INCLINATION":97.8015,"RA_OF_ASC_NODE":200.2124,"ARG_OF_PERICENTER":95.5039,"MEAN_ANOMALY":264.6348,"EPHEMERIS_TYPE":0,"NORAD_CAT_ID":67384,"ELEMENT_SET_NO":999,"REV_AT_EPOCH":2836,"BSTAR":0.00047985218,"MEAN_MOTION_DOT":0.00004208,"MEAN_MOTION_DDOT":0},{"OBJECT_NAME":"CAPELLA-18 (ACADIA-8)","OBJECT_ID":"2026-004Y","EPOCH":"2026-07-21T11:14:12.737472","CLASSIFICATION_TYPE":"U","MEAN_MOTION":14.86641935,"ECCENTRICITY":0.00015154,"INCLINATION":97.8017,"RA_OF_ASC_NODE":200.3758,"ARG_OF_PERICENTER":91.5521,"MEAN_ANOMALY":268.5869,"EPHEMERIS_TYPE":0,"NORAD_CAT_ID":67385,"ELEMENT_SET_NO":999,"REV_AT_EPOCH":2837,"BSTAR":0.00030633114,"MEAN_MOTION_DOT":0.00002666,"MEAN_MOTION_DDOT":0},{"OBJECT_NAME":"CAPELLA-20 (ACADIA-10)","OBJECT_ID":"2026-067BX","EPOCH":"2026-07-21T15:19:32.160288","CLASSIFICATION_TYPE":"U","MEAN_MOTION":14.91463312,"ECCENTRICITY":0.00033668,"INCLINATION":97.7627,"RA_OF_ASC_NODE":160.3939,"ARG_OF_PERICENTER":338.2779,"MEAN_ANOMALY":21.8297,"EPHEMERIS_TYPE":0,"NORAD_CAT_ID":68485,"ELEMENT_SET_NO":999,"REV_AT_EPOCH":1686,"BSTAR":0.0005016174,"MEAN_MOTION_DOT":0.00004963,"MEAN_MOTION_DDOT":0}]}
