{"epoch":1784710044,"count":18256,"objects":[{"id":"57693","name":"CAPELLA-11 (ACADIA)","type":"PAYLOAD","l1":"1 57693U 23126A   26201.90786702  .00002788  00000-0  34801-3 0  9998","l2":"2 57693  53.0084  38.4551 0001843 136.4242 223.6883 14.85307460157133"},{"id":"59444","name":"CAPELLA-14 (ACADIA)","type":"PAYLOAD","l1":"1 59444U 24066C   26202.59825502  .00009521  00000-0  64400-3 0  9996","l2":"2 59444  45.6032  74.3411 0000723 198.4392 161.6466 15.06863402117684"},{"id":"60419","name":"CAPELLA-13 (ACADIA)","type":"PAYLOAD","l1":"1 60419U 24142A   26202.56385041  .00003290  00000-0  38367-3 0  9991","l2":"2 60419  53.0041 267.5140 0001347  89.8509 270.2626 14.87661589105527"},{"id":"60544","name":"CAPELLA-15 (ACADIA)","type":"PAYLOAD","l1":"1 60544U 24149CE  26202.18164515  .00002140  00000-0  21444-3 0  9997","l2":"2 60544  97.6765 274.2324 0002901 316.3162  43.7827 14.92387301104924"},{"id":"64583","name":"CAPELLA-17 (ACADIA)","type":"PAYLOAD","l1":"1 64583U 25135BH  26202.61940583  .00004825  00000-0  48530-3 0  9992","l2":"2 64583  97.7708 315.7359 0004419 224.0366 136.0501 14.91668755 58988"},{"id":"65318","name":"CAPELLA-16 (ACADIA)","type":"PAYLOAD","l1":"1 65318U 25188D   26202.18173396  .00004008  00000-0  38027-3 0  9992","l2":"2 65318  97.7373 276.8260 0005790 120.9519 239.2270 14.94093380 48996"},{"id":"67384","name":"CAPELLA-19 (ACADIA)","type":"PAYLOAD","l1":"1 67384U 26004X   26202.45815928  .00004208  00000-0  47985-3 0  9994","l2":"2 67384  97.8015 200.2124 0001502  95.5039 264.6348 14.86654009 28365"},{"id":"67385","name":"CAPELLA-18 (ACADIA)","type":"PAYLOAD","l1":"1 67385U 26004Y   26202.46820298  .00002666  00000-0  30633-3 0  9990","l2":"2 67385  97.8017 200.3758 0001515  91.5521 268.5869 14.86641935 28374"},{"id":"68485","name":"CAPELLA-20 (ACADIA)","type":"PAYLOAD","l1":"1 68485U 26067BX  26202.63856667  .00004963  00000-0  50162-3 0  9990","l2":"2 68485  97.7627 160.3939 0003367 338.2779  21.8297 14.91463312 16864"}]}